{
  "type": "FeatureCollection",
  "features": [
    {
      "type": "Feature",
      "properties": {
        "norad_id": 30350,
        "name": "FENGYUN 1C DEB",
        "group": "fengyun-1c-debris",
        "lat": -56.64707031249396,
        "lon": -31.317933326937823,
        "alt_km": 940.47368438187,
        "timestamp": "2025-12-08T03:50:07.272940+00:00",
        "meta_object_name": "FENGYUN 1C DEB",
        "meta_object_id": "1999-025ABM",
        "meta_epoch": "2025-12-06T10:52:09.628608",
        "meta_mean_motion": 13.82796285,
        "meta_eccentricity": 0.02194577,
        "meta_inclination": 98.0928,
        "meta_ra_of_asc_node": 159.6968,
        "meta_arg_of_pericenter": 326.0889,
        "meta_mean_anomaly": 61.4173,
        "meta_ephemeris_type": 0,
        "meta_classification_type": "U",
        "meta_norad_cat_id": 30350,
        "meta_element_set_no": 999,
        "meta_rev_at_epoch": 94895,
        "meta_bstar": 0.0011711281,
        "meta_mean_motion_dot": 1.497e-05,
        "meta_mean_motion_ddot": 0,
        "tle_line1": "1 30350U 99025ABM 25340.45288922  .00001497  00000+0  11711-2 0  9993",
        "tle_line2": "2 30350  98.0928 159.6968 0219457 326.0889  61.4173 13.82796285948955"
      },
      "geometry": {
        "type": "Point",
        "coordinates": [
          -31.317933326937823,
          -56.64707031249396
        ]
      }
    },
    {
      "type": "Feature",
      "properties": {
        "norad_id": 30352,
        "name": "FENGYUN 1C DEB",
        "group": "fengyun-1c-debris",
        "lat": 73.50217132494679,
        "lon": -145.23437017887625,
        "alt_km": 874.0473125731041,
        "timestamp": "2025-12-08T03:50:07.272951+00:00",
        "meta_object_name": "FENGYUN 1C DEB",
        "meta_object_id": "1999-025ABP",
        "meta_epoch": "2025-12-07T00:22:04.036800",
        "meta_mean_motion": 14.0757796,
        "meta_eccentricity": 0.002806,
        "meta_inclination": 98.7645,
        "meta_ra_of_asc_node": 2.2639,
        "meta_arg_of_pericenter": 335.7064,
        "meta_mean_anomaly": 91.8664,
        "meta_ephemeris_type": 0,
        "meta_classification_type": "U",
        "meta_norad_cat_id": 30352,
        "meta_element_set_no": 999,
        "meta_rev_at_epoch": 96830,
        "meta_bstar": 0.00039366911,
        "meta_mean_motion_dot": 6.24e-06,
        "meta_mean_motion_ddot": 0,
        "tle_line1": "1 30352U 99025ABP 25341.01532450  .00000624  00000+0  39367-3 0  9995",
        "tle_line2": "2 30352  98.7645   2.2639 0028060 335.7064  91.8664 14.07577960968306"
      },
      "geometry": {
        "type": "Point",
        "coordinates": [
          -145.23437017887625,
          73.50217132494679
        ]
      }
    },
    {
      "type": "Feature",
      "properties": {
        "norad_id": 30355,
        "name": "FENGYUN 1C DEB",
        "group": "fengyun-1c-debris",
        "lat": -81.36848793343387,
        "lon": 82.01058811093135,
        "alt_km": 813.8642298457416,
        "timestamp": "2025-12-08T03:50:07.272961+00:00",
        "meta_object_name": "FENGYUN 1C DEB",
        "meta_object_id": "1999-025ABS",
        "meta_epoch": "2025-12-06T23:34:59.791872",
        "meta_mean_motion": 14.18796014,
        "meta_eccentricity": 0.00533558,
        "meta_inclination": 98.589,
        "meta_ra_of_asc_node": 345.5139,
        "meta_arg_of_pericenter": 326.3336,
        "meta_mean_anomaly": 54.1479,
        "meta_ephemeris_type": 0,
        "meta_classification_type": "U",
        "meta_norad_cat_id": 30355,
        "meta_element_set_no": 999,
        "meta_rev_at_epoch": 97269,
        "meta_bstar": 0.0011082809,
        "meta_mean_motion_dot": 2.294e-05,
        "meta_mean_motion_ddot": 0,
        "tle_line1": "1 30355U 99025ABS 25340.98263648  .00002294  00000+0  11083-2 0  9992",
        "tle_line2": "2 30355  98.5890 345.5139 0053355 326.3336  54.1479 14.18796014972698"
      },
      "geometry": {
        "type": "Point",
        "coordinates": [
          82.01058811093135,
          -81.36848793343387
        ]
      }
    },
    {
      "type": "Feature",
      "properties": {
        "norad_id": 30356,
        "name": "FENGYUN 1C DEB",
        "group": "fengyun-1c-debris",
        "lat": 14.78241955790111,
        "lon": 159.84943441626731,
        "alt_km": 877.5115907410745,
        "timestamp": "2025-12-08T03:50:07.272971+00:00",
        "meta_object_name": "FENGYUN 1C DEB",
        "meta_object_id": "1999-025ABT",
        "meta_epoch": "2025-12-06T22:26:16.118592",
        "meta_mean_motion": 14.13010896,
        "meta_eccentricity": 0.00521852,
        "meta_inclination": 98.6809,
        "meta_ra_of_asc_node": 336.3512,
        "meta_arg_of_pericenter": 305.7531,
        "meta_mean_anomaly": 112.2065,
        "meta_ephemeris_type": 0,
        "meta_classification_type": "U",
        "meta_norad_cat_id": 30356,
        "meta_element_set_no": 999,
        "meta_rev_at_epoch": 96939,
        "meta_bstar": 0.0012341654,
        "meta_mean_motion_dot": 2.289e-05,
        "meta_mean_motion_ddot": 0,
        "tle_line1": "1 30356U 99025ABT 25340.93490878  .00002289  00000+0  12342-2 0  9998",
        "tle_line2": "2 30356  98.6809 336.3512 0052185 305.7531 112.2065 14.13010896969393"
      },
      "geometry": {
        "type": "Point",
        "coordinates": [
          159.84943441626731,
          14.78241955790111
        ]
      }
    },
    {
      "type": "Feature",
      "properties": {
        "norad_id": 30357,
        "name": "FENGYUN 1C DEB",
        "group": "fengyun-1c-debris",
        "lat": 58.80601552136773,
        "lon": -155.62352665342092,
        "alt_km": 895.8238587141595,
        "timestamp": "2025-12-08T03:50:07.272981+00:00",
        "meta_object_name": "FENGYUN 1C DEB",
        "meta_object_id": "1999-025ABU",
        "meta_epoch": "2025-12-07T00:12:28.577376",
        "meta_mean_motion": 14.05259628,
        "meta_eccentricity": 0.00491095,
        "meta_inclination": 98.8069,
        "meta_ra_of_asc_node": 8.4232,
        "meta_arg_of_pericenter": 346.3593,
        "meta_mean_anomaly": 72.9171,
        "meta_ephemeris_type": 0,
        "meta_classification_type": "U",
        "meta_norad_cat_id": 30357,
        "meta_element_set_no": 999,
        "meta_rev_at_epoch": 96726,
        "meta_bstar": 0.00027805705,
        "meta_mean_motion_dot": 4.12e-06,
        "meta_mean_motion_ddot": 0,
        "tle_line1": "1 30357U 99025ABU 25341.00866409  .00000412  00000+0  27806-3 0  9993",
        "tle_line2": "2 30357  98.8069   8.4232 0049109 346.3593  72.9171 14.05259628967264"
      },
      "geometry": {
        "type": "Point",
        "coordinates": [
          -155.62352665342092,
          58.80601552136773
        ]
      }
    },
    {
      "type": "Feature",
      "properties": {
        "norad_id": 30358,
        "name": "FENGYUN 1C DEB",
        "group": "fengyun-1c-debris",
        "lat": -75.71609156230393,
        "lon": -44.818345800445805,
        "alt_km": 788.5878299934957,
        "timestamp": "2025-12-08T03:50:07.272991+00:00",
        "meta_object_name": "FENGYUN 1C DEB",
        "meta_object_id": "1999-025ABV",
        "meta_epoch": "2025-12-07T07:11:25.555776",
        "meta_mean_motion": 14.20604177,
        "meta_eccentricity": 0.00828265,
        "meta_inclination": 98.5535,
        "meta_ra_of_asc_node": 170.5869,
        "meta_arg_of_pericenter": 215.3916,
        "meta_mean_anomaly": 325.6643,
        "meta_ephemeris_type": 0,
        "meta_classification_type": "U",
        "meta_norad_cat_id": 30358,
        "meta_element_set_no": 999,
        "meta_rev_at_epoch": 96840,
        "meta_bstar": 0.0028846599,
        "meta_mean_motion_dot": 6.387e-05,
        "meta_mean_motion_ddot": 0,
        "tle_line1": "1 30358U 99025ABV 25341.29960134  .00006387  00000+0  28847-2 0  9997",
        "tle_line2": "2 30358  98.5535 170.5869 0082826 215.3916 325.6643 14.20604177968403"
      },
      "geometry": {
        "type": "Point",
        "coordinates": [
          -44.818345800445805,
          -75.71609156230393
        ]
      }
    },
    {
      "type": "Feature",
      "properties": {
        "norad_id": 30359,
        "name": "FENGYUN 1C DEB",
        "group": "fengyun-1c-debris",
        "lat": -3.507751575089225,
        "lon": 167.41348679881932,
        "alt_km": 812.3457952992512,
        "timestamp": "2025-12-08T03:50:07.273001+00:00",
        "meta_object_name": "FENGYUN 1C DEB",
        "meta_object_id": "1999-025ABW",
        "meta_epoch": "2025-12-07T05:27:31.727520",
        "meta_mean_motion": 13.93946694,
        "meta_eccentricity": 0.0145033,
        "meta_inclination": 101.6268,
        "meta_ra_of_asc_node": 165.5203,
        "meta_arg_of_pericenter": 356.1841,
        "meta_mean_anomaly": 3.8194,
        "meta_ephemeris_type": 0,
        "meta_classification_type": "U",
        "meta_norad_cat_id": 30359,
        "meta_element_set_no": 999,
        "meta_rev_at_epoch": 94992,
        "meta_bstar": 0.0036500704,
        "meta_mean_motion_dot": 5.201e-05,
        "meta_mean_motion_ddot": 0,
        "tle_line1": "1 30359U 99025ABW 25341.22745055  .00005201  00000+0  36501-2 0  9994",
        "tle_line2": "2 30359 101.6268 165.5203 0145033 356.1841   3.8194 13.93946694949924"
      },
      "geometry": {
        "type": "Point",
        "coordinates": [
          167.41348679881932,
          -3.507751575089225
        ]
      }
    }
  ]
}